ONEWEB-0346             
1 49212U 21083AC  24106.54093510  .00000035  00000+0  56607-4 0  9997
2 49212  87.9137 133.2598 0002326  83.3047 276.8350 13.18686954125510
ONEWEB-0348             
1 49213U 21083AD  24107.22841198  .00003129  00000+0  76625-2 0  9994
2 49213  87.9174  72.0270 0002650  84.4001 275.7434 13.20755617133573
ONEWEB-0350             
1 49214U 21083AE  24107.10141982  .00000188  00000+0  47995-3 0  9997
2 49214  87.8893 117.8962 0002359  93.5056 266.6343 13.13469727128257
ONEWEB-0351             
1 49215U 21083AF  24106.91892691  .00000150  00000+0  33790-3 0  9993
2 49215  87.9169  72.0904 0001123 104.3803 255.7455 13.20771965132191
ONEWEB-0352             
1 49216U 21083AG  24106.77765734  .00000256  00000+0  66486-3 0  9990
2 49216  87.8896 117.9899 0001814  99.6751 260.4583 13.13471789127007
ONEWEB-0354             
1 49217U 21083AH  24106.86856301  .00000098  00000+0  20961-3 0  9994
2 49217  87.9173  72.0833 0002270  90.9831 269.1562 13.20770525132227
ONEWEB-0355             
1 49218U 21083AJ  24107.03633984  .00000065  00000+0  14276-3 0  9991
2 49218  87.8897 117.9375 0001998  94.8934 265.2423 13.13468092128215
ONEWEB-0357             
1 49219U 21083AK  24106.94114179  .00000138  00000+0  30624-3 0  9997
2 49219  87.9169  72.0894 0001943  89.6849 270.4507 13.20772269133537
